{"type": "FeatureCollection", "features": [ {"type": "Feature", "properties": {"norad_id": 41774, "name": "SKYSAT-C3", "group": "resource", "lat": -74.04457659622035, "lon": 39.69529379753555, "alt_km": 442.44649246461904, "timestamp": "2025-12-06T11:28:10.686638+00:00", "meta": {"OBJECT_NAME": "SKYSAT-C3", "OBJECT_ID": "2016-058E", "EPOCH": "2025-12-05T20:14:34.831680", "MEAN_MOTION": 15.44042699, "ECCENTRICITY": 0.00014809, "INCLINATION": 96.9301, "RA_OF_ASC_NODE": 13.9125, "ARG_OF_PERICENTER": 103.2825, "MEAN_ANOMALY": 256.859, "EPHEMERIS_TYPE": 0, "CLASSIFICATION_TYPE": "U", "NORAD_CAT_ID": 41774, "ELEMENT_SET_NO": 999, "REV_AT_EPOCH": 51619, "BSTAR": 0.00062153379, "MEAN_MOTION_DOT": 0.00028352, "MEAN_MOTION_DDOT": 0}, "tle": {"line1": "1 41774U 16058E   25339.84345870  .00028352  00000+0  62153-3 0  9993", "line2": "2 41774  96.9301  13.9125 0001480 103.2825 256.8590 15.44042699516199"}}, "geometry": {"type": "Point", "coordinates": [39.69529379753555, -74.04457659622035]}}, {"type": "Feature", "properties": {"norad_id": 41785, "name": "ALSAT 1B", "group": "resource", "lat": -33.06448711178118, "lon": -2.354668821629613, "alt_km": 667.324979826536, "timestamp": "2025-12-06T11:28:10.686648+00:00", "meta": {"OBJECT_NAME": "ALSAT 1B", "OBJECT_ID": "2016-059C", "EPOCH": "2025-12-05T22:34:13.854432", "MEAN_MOTION": 14.72064444, "ECCENTRICITY": 0.00105051, "INCLINATION": 97.7816, "RA_OF_ASC_NODE": 352.0236, "ARG_OF_PERICENTER": 123.0681, "MEAN_ANOMALY": 237.1538, "EPHEMERIS_TYPE": 0, "CLASSIFICATION_TYPE": "U", "NORAD_CAT_ID": 41785, "ELEMENT_SET_NO": 999, "REV_AT_EPOCH": 49214, "BSTAR": 0.00014527319, "MEAN_MOTION_DOT": 8.67e-06, "MEAN_MOTION_DDOT": 0}, "tle": {"line1": "1 41785U 16059C   25339.94043813  .00000867  00000+0  14527-3 0  9992", "line2": "2 41785  97.7816 352.0236 0010505 123.0681 237.1538 14.72064444492143"}}, "geometry": {"type": "Point", "coordinates": [-2.354668821629613, -33.06448711178118]}}, {"type": "Feature", "properties": {"norad_id": 41787, "name": "PATHFINDER 1", "group": "resource", "lat": 26.932163174039864, "lon": 167.54254530792286, "alt_km": 655.7595881998504, "timestamp": "2025-12-06T11:28:10.686658+00:00", "meta": {"OBJECT_NAME": "PATHFINDER 1", "OBJECT_ID": "2016-059E", "EPOCH": "2025-12-05T23:19:20.257536", "MEAN_MOTION": 14.67302498, "ECCENTRICITY": 0.00300191, "INCLINATION": 97.8138, "RA_OF_ASC_NODE": 343.0595, "ARG_OF_PERICENTER": 101.7527, "MEAN_ANOMALY": 258.7049, "EPHEMERIS_TYPE": 0, "CLASSIFICATION_TYPE": "U", "NORAD_CAT_ID": 41787, "ELEMENT_SET_NO": 999, "REV_AT_EPOCH": 49137, "BSTAR": 0.00025657541, "MEAN_MOTION_DOT": 1.411e-05, "MEAN_MOTION_DDOT": 0}, "tle": {"line1": "1 41787U 16059E   25339.97176224  .00001411  00000+0  25658-3 0  9993", "line2": "2 41787  97.8138 343.0595 0030019 101.7527 258.7049 14.67302498491373"}}, "geometry": {"type": "Point", "coordinates": [167.54254530792286, 26.932163174039864]}}, {"type": "Feature", "properties": {"norad_id": 41790, "name": "SCATSAT 1", "group": "resource", "lat": -63.04770130701932, "lon": -159.2934376730885, "alt_km": 644.1102558550656, "timestamp": "2025-12-06T11:28:10.686669+00:00", "meta": {"OBJECT_NAME": "SCATSAT 1", "OBJECT_ID": "2016-059H", "EPOCH": "2025-12-05T21:22:57.884736", "MEAN_MOTION": 14.78899787, "ECCENTRICITY": 0.00559443, "INCLINATION": 98.147, "RA_OF_ASC_NODE": 36.4759, "ARG_OF_PERICENTER": 149.688, "MEAN_ANOMALY": 210.7587, "EPHEMERIS_TYPE": 0, "CLASSIFICATION_TYPE": "U", "NORAD_CAT_ID": 41790, "ELEMENT_SET_NO": 999, "REV_AT_EPOCH": 7301, "BSTAR": 0.00044047024, "MEAN_MOTION_DOT": 3.277e-05, "MEAN_MOTION_DDOT": 0}, "tle": {"line1": "1 41790U 16059H   25339.89094774  .00003277  00000+0  44047-3 0  9992", "line2": "2 41790  98.1470  36.4759 0055944 149.6880 210.7587 14.78899787 73018"}}, "geometry": {"type": "Point", "coordinates": [-159.2934376730885, -63.04770130701932]}}, {"type": "Feature", "properties": {"norad_id": 41875, "name": "GOKTURK 1A", "group": "resource", "lat": -28.21540634087491, "lon": -122.6670750613875, "alt_km": 690.3734152411835, "timestamp": "2025-12-06T11:28:10.686679+00:00", "meta": {"OBJECT_NAME": "GOKTURK 1A", "OBJECT_ID": "2016-073A", "EPOCH": "2025-12-05T22:27:58.168224", "MEAN_MOTION": 14.62767111, "ECCENTRICITY": 0.00012407, "INCLINATION": 98.1437, "RA_OF_ASC_NODE": 232.3921, "ARG_OF_PERICENTER": 82.6935, "MEAN_ANOMALY": 277.4408, "EPHEMERIS_TYPE": 0, "CLASSIFICATION_TYPE": "U", "NORAD_CAT_ID": 41875, "ELEMENT_SET_NO": 999, "REV_AT_EPOCH": 48057, "BSTAR": 0.00021045899, "MEAN_MOTION_DOT": 1.026e-05, "MEAN_MOTION_DDOT": 0}, "tle": {"line1": "1 41875U 16073A   25339.93608991  .00001026  00000+0  21046-3 0  9993", "line2": "2 41875  98.1437 232.3921 0001240  82.6935 277.4408 14.62767111480573"}}, "geometry": {"type": "Point", "coordinates": [-122.6670750613875, -28.21540634087491]}}, {"type": "Feature", "properties": {"norad_id": 41877, "name": "RESOURCESAT-2A", "group": "resource", "lat": -46.474739748680555, "lon": -138.99082184618882, "alt_km": 826.28706641996, "timestamp": "2025-12-06T11:28:10.686689+00:00", "meta": {"OBJECT_NAME": "RESOURCESAT-2A", "OBJECT_ID": "2016-074A", "EPOCH": "2025-12-05T22:34:48.230400", "MEAN_MOTION": 14.21595018, "ECCENTRICITY": 0.00011287, "INCLINATION": 98.7767, "RA_OF_ASC_NODE": 49.8363, "ARG_OF_PERICENTER": 288.3181, "MEAN_ANOMALY": 71.7873, "EPHEMERIS_TYPE": 0, "CLASSIFICATION_TYPE": "U", "NORAD_CAT_ID": 41877, "ELEMENT_SET_NO": 999, "REV_AT_EPOCH": 46684, "BSTAR": 0.00017371029, "MEAN_MOTION_DOT": 3.36e-06, "MEAN_MOTION_DDOT": 0}, "tle": {"line1": "1 41877U 16074A   25339.94083600  .00000336  00000+0  17371-3 0  9990", "line2": "2 41877  98.7767  49.8363 0001128 288.3181  71.7873 14.21595018466846"}}, "geometry": {"type": "Point", "coordinates": [-138.99082184618882, -46.474739748680555]}}, {"type": "Feature", "properties": {"norad_id": 41948, "name": "CARTOSAT-2D", "group": "resource", "lat": -16.793750776517406, "lon": -144.18921666362098, "alt_km": 510.6318529820355, "timestamp": "2025-12-06T11:28:10.686699+00:00", "meta": {"OBJECT_NAME": "CARTOSAT-2D", "OBJECT_ID": "2017-008A", "EPOCH": "2025-12-05T21:57:33.419232", "MEAN_MOTION": 15.1915257, "ECCENTRICITY": 0.00040625, "INCLINATION": 97.4398, "RA_OF_ASC_NODE": 37.5166, "ARG_OF_PERICENTER": 185.3307, "MEAN_ANOMALY": 174.7885, "EPHEMERIS_TYPE": 0, "CLASSIFICATION_TYPE": "U", "NORAD_CAT_ID": 41948, "ELEMENT_SET_NO": 999, "REV_AT_EPOCH": 48823, "BSTAR": 0.00041750824, "MEAN_MOTION_DOT": 8.712e-05, "MEAN_MOTION_DDOT": 0}, "tle": {"line1": "1 41948U 17008A   25339.91497013  .00008712  00000+0  41751-3 0  9996", "line2": "2 41948  97.4398  37.5166 0004062 185.3307 174.7885 15.19152570488236"}}, "geometry": {"type": "Point", "coordinates": [-144.18921666362098, -16.793750776517406]}}, {"type": "Feature", "properties": {"norad_id": 42063, "name": "SENTINEL-2B", "group": "resource", "lat": -11.685477173354363, "lon": 54.79943563488764, "alt_km": 793.5891177260264, "timestamp": "2025-12-06T11:28:10.686710+00:00", "meta": {"OBJECT_NAME": "SENTINEL-2B", "OBJECT_ID": "2017-013A", "EPOCH": "2025-12-05T22:05:53.211264", "MEAN_MOTION": 14.3081181, "ECCENTRICITY": 0.00011252, "INCLINATION": 98.5726, "RA_OF_ASC_NODE": 52.4623, "ARG_OF_PERICENTER": 97.9023, "MEAN_ANOMALY": 262.2287, "EPHEMERIS_TYPE": 0, "CLASSIFICATION_TYPE": "U", "NORAD_CAT_ID": 42063, "ELEMENT_SET_NO": 999, "REV_AT_EPOCH": 45700, "BSTAR": 0.00013627387, "MEAN_MOTION_DOT": 3.14e-06, "MEAN_MOTION_DDOT": 0}, "tle": {"line1": "1 42063U 17013A   25339.92075476  .00000314  00000+0  13627-3 0  9998", "line2": "2 42063  98.5726  52.4623 0001125  97.9023 262.2287 14.30811810457007"}}, "geometry": {"type": "Point", "coordinates": [54.79943563488764, -11.685477173354363]}}, {"type": "Feature", "properties": {"norad_id": 42767, "name": "CARTOSAT-2E", "group": "resource", "lat": 71.64940756467787, "lon": -118.59692259982383, "alt_km": 502.8339171217567, "timestamp": "2025-12-06T11:28:10.686732+00:00", "meta": {"OBJECT_NAME": "CARTOSAT-2E", "OBJECT_ID": "2017-036C", "EPOCH": "2025-12-05T22:21:18.104256", "MEAN_MOTION": 15.19216278, "ECCENTRICITY": 0.00023327, "INCLINATION": 97.4565, "RA_OF_ASC_NODE": 37.607, "ARG_OF_PERICENTER": 272.4297, "MEAN_ANOMALY": 87.667, "EPHEMERIS_TYPE": 0, "CLASSIFICATION_TYPE": "U", "NORAD_CAT_ID": 42767, "ELEMENT_SET_NO": 999, "REV_AT_EPOCH": 46880, "BSTAR": 0.00039920126, "MEAN_MOTION_DOT": 8.341e-05, "MEAN_MOTION_DDOT": 0}, "tle": {"line1": "1 42767U 17036C   25339.93145954  .00008341  00000+0  39920-3 0  9996", "line2": "2 42767  97.4565  37.6070 0002332 272.4297  87.6670 15.19216278468802"}}, "geometry": {"type": "Point", "coordinates": [-118.59692259982383, 71.64940756467787]}}, {"type": "Feature", "properties": {"norad_id": 42920, "name": "FORMOSAT-5", "group": "resource", "lat": -73.8055009603401, "lon": -155.03440550769707, "alt_km": 726.1580748510969, "timestamp": "2025-12-06T11:28:10.686746+00:00", "meta": {"OBJECT_NAME": "FORMOSAT-5", "OBJECT_ID": "2017-049A", "EPOCH": "2025-12-05T22:42:27.011808", "MEAN_MOTION": 14.50998935, "ECCENTRICITY": 0.00101683, "INCLINATION": 98.2459, "RA_OF_ASC_NODE": 54.3997, "ARG_OF_PERICENTER": 318.39, "MEAN_ANOMALY": 41.6521, "EPHEMERIS_TYPE": 0, "CLASSIFICATION_TYPE": "U", "NORAD_CAT_ID": 42920, "ELEMENT_SET_NO": 999, "REV_AT_EPOCH": 43865, "BSTAR": 0.00013791371, "MEAN_MOTION_DOT": 5.02e-06, "MEAN_MOTION_DDOT": 0}, "tle": {"line1": "1 42920U 17049A   25339.94614597  .00000502  00000+0  13791-3 0  9995", "line2": "2 42920  98.2459  54.3997 0010168 318.3900  41.6521 14.50998935438651"}}, "geometry": {"type": "Point", "coordinates": [-155.03440550769707, -73.8055009603401]}}]}